QZS-1R                  
1 49336U 21096A   23323.24275904 -.00000199  00000+0  00000+0 0  9997
2 49336  35.5129  93.7549 0750626 270.6109 276.0525  1.00266178  7577
